{"type":"FeatureCollection","features":[{"type":"Feature","properties":{"Kampus":"stt nf kampus B","Alamat":"lenteng agung"},"geometry":{"coordinates":[106.83267935833544,-6.352867778199098],"type":"Point"},"id":0},{"type":"Feature","properties":{"nama":"stt nf kampus A","alamat":"situ indah kelapa dua"},"geometry":{"coordinates":[106.84443882412432,-6.362783831470921],"type":"Point"},"id":1},{"type":"Feature","properties":{"nama":"kampus UI","alamat":"depok"},"geometry":{"coordinates":[106.82952132736204,-6.3634117439318345],"type":"Point"},"id":2},{"type":"Feature","properties":{"nama":"univ.pancasila","alamat":"pasar minggu, jakarta"},"geometry":{"coordinates":[106.83301660693121,-6.339237616815026],"type":"Point"},"id":3},{"type":"Feature","properties":{"nama":"univ.gunadarma kelapa dua","alamat":"kelapa dua rtm"},"geometry":{"coordinates":[106.84358102872443,-6.354347753372764],"type":"Point"}},{"type":"Feature","properties":{"nama":"kampus polimedia","alamat":"srengseng sawah jakarta"},"geometry":{"coordinates":[106.82727041485754,-6.347006572089597],"type":"Point"},"id":5}]}